IRIDIUM 116             
1 43072U 17083C   23295.89772124  .00000474  00000+0  16223-3 0  9997
2 43072  86.4020   6.6980 0002346  95.5345 264.6118 14.34220363305388
IRIDIUM 130             
1 43073U 17083D   23296.21484821  .00000436  00000+0  14859-3 0  9990
2 43073  86.4028   6.7468 0002087  95.1958 264.9475 14.34220295305379
IRIDIUM 151             
1 43074U 17083E   23295.91040604  .00000466  00000+0  15917-3 0  9993
2 43074  86.4022   6.7285 0002368  90.7358 269.4110 14.34219621305353
IRIDIUM 134             
1 43075U 17083F   23295.73915873  .00000419  00000+0  14260-3 0  9991
2 43075  86.4024   6.7949 0002077  96.4634 263.6798 14.34218544305294
IRIDIUM 137             
1 43076U 17083G   23296.44952426  .00000494  00000+0  16944-3 0  9990
2 43076  86.4025   6.5719 0002544  95.7652 264.3833 14.34217002305465
IRIDIUM 141             
1 43077U 17083H   23295.74550244  .00000426  00000+0  14515-3 0  9992
2 43077  86.4021   6.7512 0002142  88.9717 271.1724 14.34216664305362
IRIDIUM 153             
1 43078U 17083J   23296.18604838  .00000420  00000+0  14297-3 0  9992
2 43078  86.3976 335.0369 0002049  84.0523 276.0906 14.34213628306530
IRIDIUM 131             
1 43079U 17083K   23295.73281257  .00000474  00000+0  16224-3 0  9990
2 43079  86.4026   6.8775 0002087  92.0525 268.0909 14.34219248305295
